NORAD_CAT_ID,OBJECT_NAME,OBJECT_TYPE,EPOCH,MEAN_MOTION,ECCENTRICITY,INCLINATION,RA_OF_ASC_NODE,ARG_OF_PERICENTER,MEAN_ANOMALY,BSTAR,MEAN_MOTION_DOT,MEAN_MOTION_DDOT,TLE_LINE0,TLE_LINE1,TLE_LINE2,SEMIMAJOR_AXIS,PERIOD,APOGEE,PERIGEE,DECAYED
53173.0,STARLINK-4300,PAYLOAD,2023-09-26 19:52:08,15.08839691,0.0001353,53.2159,196.2984,86.6764,273.4383,-3.0307e-05,-7.7e-06,0.0,0 STARLINK-4300,1 53173U 22083AT  23269.82787416 -.00000770  00000-0 -30307-4 0  9992,2 53173  53.2159 196.2984 0001353  86.6764 273.4383 15.08839691 66602,6917.881,95.438,540.682,538.81,0.0
53173.0,STARLINK-4300,PAYLOAD,2023-09-27 02:13:41,15.08834081,0.0001302,53.2161,195.1093,86.6775,273.4366,-0.00011462,-2.111e-05,0.0,0 STARLINK-4300,1 53173U 22083AT  23270.09283713 -.00002111  00000-0 -11462-3 0  9995,2 53173  53.2161 195.1093 0001302  86.6775 273.4366 15.08834081 67284,6917.898,95.438,540.664,538.863,0.0
53173.0,STARLINK-4300,PAYLOAD,2023-09-27 11:46:00,15.0882576,0.000135,53.216,193.3256,83.353,276.7616,-0.00017939,-3.141e-05,0.0,0 STARLINK-4300,1 53173U 22083AT  23270.49028292 -.00003141  00000-0 -17939-3 0  9997,2 53173  53.2160 193.3256 0001350  83.3530 276.7616 15.08825760 66704,6917.924,95.438,540.723,538.855,0.0
53173.0,STARLINK-4300,PAYLOAD,2023-09-28 00:29:05,15.0882615,0.0001321,53.2151,190.9514,96.9305,263.1837,-0.00010319,-1.929e-05,0.0,0 STARLINK-4300,1 53173U 22083AT  23271.02020723 -.00001929  00000-0 -10319-3 0  9995,2 53173  53.2151 190.9514 0001321  96.9305 263.1837 15.08826150 66789,6917.923,95.438,540.702,538.874,0.0
53173.0,STARLINK-4300,PAYLOAD,2023-09-29 17:49:07,15.08854318,0.0001326,53.2156,183.2183,87.4354,272.679,0.00043354,6.621e-05,0.0,0 STARLINK-4300,1 53173U 22083AT  23272.74244391  .00006621  00000-0  43354-3 0  9991,2 53173  53.2156 183.2183 0001326  87.4354 272.6790 15.08854318 67685,6917.837,95.437,540.619,538.784,0.0
53173.0,STARLINK-4300,PAYLOAD,2023-09-30 03:21:25,15.08870511,0.0001529,53.2155,181.4342,86.6662,273.4505,0.00063744,9.88e-05,0.0,0 STARLINK-4300,1 53173U 22083AT  23273.13987516  .00009880  00000-0  63744-3 0  9993,2 53173  53.2155 181.4342 0001529  86.6662 273.4505 15.08870511 67742,6917.787,95.436,540.71,538.594,0.0
53173.0,STARLINK-4300,PAYLOAD,2023-09-30 04:56:48,15.08874811,0.0001531,53.2154,181.1369,86.8209,273.2958,0.00072987,0.00011358,0.0,0 STARLINK-4300,1 53173U 22083AT  23273.20611300  .00011358  00000-0  72987-3 0  9998,2 53173  53.2154 181.1369 0001531  86.8209 273.2958 15.08874811 67117,6917.774,95.435,540.698,538.58,0.0
53173.0,STARLINK-4300,PAYLOAD,2023-09-30 17:39:54,15.08834225,0.0001591,53.2151,178.7579,78.6383,281.4788,-1.8578e-05,-5.84e-06,0.0,0 STARLINK-4300,1 53173U 22083AT  23273.73604403 -.00000584  00000-0 -18578-4 0  9990,2 53173  53.2151 178.7579 0001591  78.6383 281.4788 15.08834225 67833,6917.898,95.438,540.864,538.662,0.0
53173.0,STARLINK-4300,PAYLOAD,2023-10-01 12:44:32,15.08851429,0.0001534,53.215,175.1895,79.1941,280.9224,0.001407,0.00022182,0.0,0 STARLINK-4300,1 53173U 22083AT  23274.53092714  .00022182  00000-0  14070-2 0  9992,2 53173  53.2150 175.1895 0001534  79.1941 280.9224 15.08851429 67314,6917.845,95.437,540.772,538.649,0.0
53173.0,STARLINK-4300,PAYLOAD,2023-10-01 17:30:41,15.08855334,0.000158,53.215,174.2976,81.4424,278.6747,0.0013836,0.0002181,0.0,0 STARLINK-4300,1 53173U 22083AT  23274.72964675  .00021810  00000-0  13836-2 0  9993,2 53173  53.2150 174.2976 0001580  81.4424 278.6747 15.08855334 67983,6917.834,95.437,540.792,538.606,0.0
53173.0,STARLINK-4300,PAYLOAD,2023-10-01 22:16:50,15.08864384,0.000165,53.215,173.4059,76.6934,283.4242,0.0015516,0.00024509,0.0,0 STARLINK-4300,1 53173U 22083AT  23274.92836416  .00024509  00000-0  15516-2 0  9991,2 53173  53.2150 173.4059 0001650  76.6934 283.4242 15.08864384 67378,6917.806,95.436,540.812,538.529,0.0
53173.0,STARLINK-4300,PAYLOAD,2023-10-02 20:32:14,15.088476,0.0001278,53.215,169.2421,98.9045,261.2092,0.0011315,0.00017769,0.0,0 STARLINK-4300,1 53173U 22083AT  23275.85572197  .00017769  00000-0  11315-2 0  9990,2 53173  53.2150 169.2421 0001278  98.9045 261.2092 15.08847600 68156,6917.857,95.437,540.606,538.838,0.0
53173.0,STARLINK-4300,PAYLOAD,2023-10-02 23:43:00,15.08849799,0.000127,53.215,168.6475,93.2444,266.8694,0.0014784,0.00023325,0.0,0 STARLINK-4300,1 53173U 22083AT  23275.98820226  .00023325  00000-0  14784-2 0  9991,2 53173  53.2150 168.6475 0001270  93.2444 266.8694 15.08849799 67532,6917.85,95.437,540.594,538.837,0.0
53173.0,STARLINK-4300,PAYLOAD,2023-10-03 21:58:25,15.08856844,0.0001201,53.215,164.4843,110.7945,249.3176,0.0020081,0.0003183,0.0,0 STARLINK-4300,1 53173U 22083AT  23276.91556841  .00031830  00000-0  20081-2 0  9991,2 53173  53.2150 164.4843 0001201 110.7945 249.3176 15.08856844 67675,6917.829,95.436,540.525,538.863,0.0
53173.0,STARLINK-4300,PAYLOAD,2023-10-04 12:16:53,15.0885455,0.0001543,53.2148,161.8084,110.6251,249.4907,0.0014848,0.00023431,0.0,0 STARLINK-4300,1 53173U 22083AT  23277.51172860  .00023431  00000-0  14848-2 0  9995,2 53173  53.2148 161.8084 0001543 110.6251 249.4907 15.08854550 67763,6917.836,95.437,540.768,538.633,0.0
53173.0,STARLINK-4300,PAYLOAD,2023-10-04 21:49:11,15.0886422,0.0001245,53.2146,160.0245,97.2219,262.8915,0.0011041,0.00017339,0.0,0 STARLINK-4300,1 53173U 22083AT  23277.90916391  .00017339  00000-0  11041-2 0  9995,2 53173  53.2146 160.0245 0001245  97.2219 262.8915 15.08864220 67824,6917.806,95.436,540.533,538.81,0.0
53173.0,STARLINK-4300,PAYLOAD,2023-10-04 23:24:34,15.08868742,0.0001143,53.2148,159.727,89.3727,270.7396,0.0010876,0.00017077,0.0,0 STARLINK-4300,1 53173U 22083AT  23277.97540215  .00017077  00000-0  10876-2 0  9994,2 53173  53.2148 159.7270 0001143  89.3727 270.7396 15.08868742 68478,6917.793,95.436,540.448,538.867,0.0
53173.0,STARLINK-4300,PAYLOAD,2023-10-05 12:07:39,15.08856069,0.0001406,53.2172,157.3528,118.1732,241.9402,0.00066683,0.00010345,0.0,0 STARLINK-4300,1 53173U 22083AT  23278.50532002  .00010345  00000-0  66683-3 0  9998,2 53173  53.2172 157.3528 0001406 118.1732 241.9402 15.08856069 67919,6917.831,95.437,540.669,538.724,0.0
53173.0,STARLINK-4300,PAYLOAD,2023-10-05 20:04:35,15.08836918,0.0001427,53.2145,155.8616,81.6074,278.508,-0.00011386,-2.099e-05,0.0,0 STARLINK-4300,1 53173U 22083AT  23278.83652458 -.00002099  00000-0 -11386-3 0  9991,2 53173  53.2145 155.8616 0001427  81.6074 278.5080 15.08836918 68602,6917.89,95.438,540.742,538.768,0.0
53173.0,STARLINK-4300,PAYLOAD,2023-10-05 21:39:58,15.08837333,0.0001439,53.2145,155.5642,79.6576,280.4578,1.0636e-05,-1.19e-06,0.0,0 STARLINK-4300,1 53173U 22083AT  23278.90276491 -.00000119  00000-0  10636-4 0  9996,2 53173  53.2145 155.5642 0001439  79.6576 280.4578 15.08837333 67970,6917.889,95.438,540.749,538.758,0.0
53173.0,STARLINK-4300,PAYLOAD,2023-10-06 08:47:41,15.08827918,0.0001695,53.2145,153.4823,94.1097,266.0089,0.00078594,0.00012238,0.0,0 STARLINK-4300,1 53173U 22083AT  23279.36645177  .00012238  00000-0  78594-3 0  9998,2 53173  53.2145 153.4823 0001695  94.1097 266.0089 15.08827918 68046,6917.917,95.438,540.955,538.61,0.0
53173.0,STARLINK-4300,PAYLOAD,2023-10-06 21:30:46,15.08833303,0.0001585,53.2145,151.101,92.2214,267.896,0.00043674,6.668e-05,0.0,0 STARLINK-4300,1 53173U 22083AT  23279.89637435  .00006668  00000-0  43674-3 0  9995,2 53173  53.2145 151.1010 0001585  92.2214 267.8960 15.08833303 68128,6917.901,95.438,540.862,538.669,0.0
53173.0,STARLINK-4300,PAYLOAD,2023-10-06 23:06:09,15.08839498,0.0001469,53.2143,150.8059,92.1795,267.9366,0.00046676,7.148e-05,0.0,0 STARLINK-4300,1 53173U 22083AT  23279.96261325  .00007148  00000-0  46676-3 0  9993,2 53173  53.2143 150.8059 0001469  92.1795 267.9366 15.08839498 68772,6917.882,95.438,540.763,538.731,0.0
53173.0,STARLINK-4300,PAYLOAD,2023-10-07 18:10:47,15.08838158,0.0001533,53.2143,147.2379,85.5344,274.5823,0.00026189,3.882e-05,0.0,0 STARLINK-4300,1 53173U 22083AT  23280.75749794  .00003882  00000-0  26189-3 0  9991,2 53173  53.2143 147.2379 0001533  85.5344 274.5823 15.08838158 68892,6917.886,95.438,540.812,538.691,0.0
53173.0,STARLINK-4300,PAYLOAD,2023-10-07 21:21:33,15.08844734,0.000142,53.2146,146.6419,89.3989,270.7165,0.00045471,6.957e-05,0.0,0 STARLINK-4300,1 53173U 22083AT  23280.88997616  .00006957  00000-0  45471-3 0  9994,2 53173  53.2146 146.6419 0001420  89.3989 270.7165 15.08844734 68271,6917.866,95.437,540.713,538.749,0.0
53173.0,STARLINK-4300,PAYLOAD,2023-10-08 08:29:15,15.08848041,0.0001434,53.2143,144.5618,82.9188,277.1967,0.00037925,5.754e-05,0.0,0 STARLINK-4300,1 53173U 22083AT  23281.35365529  .00005754  00000-0  37925-3 0  9998,2 53173  53.2143 144.5618 0001434  82.9188 277.1967 15.08848041 68345,6917.856,95.437,540.713,538.729,0.0
53173.0,STARLINK-4300,PAYLOAD,2023-10-08 21:12:20,15.08854166,0.0001342,53.2148,142.1821,94.3755,265.739,0.00035266,5.331e-05,0.0,0 STARLINK-4300,1 53173U 22083AT  23281.88356982  .00005331  00000-0  35266-3 0  9996,2 53173  53.2148 142.1821 0001342  94.3755 265.7390 15.08854166 68422,6917.837,95.437,540.63,538.774,0.0
53173.0,STARLINK-4300,PAYLOAD,2023-10-09 08:20:02,15.08845004,0.0001435,53.216,140.099,88.8298,271.2858,0.00016455,2.332e-05,0.0,0 STARLINK-4300,1 53173U 22083AT  23282.34725301  .00002332  00000-0  16455-3 0  9990,2 53173  53.2160 140.0990 0001435  88.8298 271.2858 15.08845004 69134,6917.865,95.437,540.723,538.737,0.0
53173.0,STARLINK-4300,PAYLOAD,2023-10-09 21:03:07,15.08838947,0.0001491,53.2158,137.7196,97.3605,262.7557,-1.0511e-05,-4.55e-06,0.0,0 STARLINK-4300,1 53173U 22083AT  23282.87717589 -.00000455  00000-0 -10511-4 0  9991,2 53173  53.2158 137.7196 0001491  97.3605 262.7557 15.08838947 68577,6917.884,95.438,540.78,538.717,0.0
53173.0,STARLINK-4300,PAYLOAD,2023-10-10 00:13:54,15.08838491,0.0001493,53.2171,137.1253,98.1405,261.9756,0.00021022,3.059e-05,0.0,0 STARLINK-4300,1 53173U 22083AT  23283.00965728  .00003059  00000-0  21022-3 0  9996,2 53173  53.2171 137.1253 0001493  98.1405 261.9756 15.08838491 69239,6917.885,95.438,540.783,538.717,0.0
